[{"OBJECT_NAME":"CATSAT","OBJECT_ID":"2024-125J","EPOCH":"2026-03-09T13:24:35.272512","MEAN_MOTION":15.48684945,"ECCENTRICITY":0.00278215,"INCLINATION":97.2211,"RA_OF_ASC_NODE":280.4545,"ARG_OF_PERICENTER":188.3522,"MEAN_ANOMALY":171.727,"EPHEMERIS_TYPE":0,"CLASSIFICATION_TYPE":"U","NORAD_CAT_ID":60246,"ELEMENT_SET_NO":999,"REV_AT_EPOCH":9192,"BSTAR":0.00082380807,"MEAN_MOTION_DOT":0.00044864,"MEAN_MOTION_DDOT":0},{"OBJECT_NAME":"SHIYAN-32 02","OBJECT_ID":"2025-255C","EPOCH":"2026-03-09T22:32:46.464288","MEAN_MOTION":15.40269108,"ECCENTRICITY":0.00088844,"INCLINATION":52.9927,"RA_OF_ASC_NODE":124.9881,"ARG_OF_PERICENTER":227.8848,"MEAN_ANOMALY":132.14,"EPHEMERIS_TYPE":0,"CLASSIFICATION_TYPE":"U","NORAD_CAT_ID":66378,"ELEMENT_SET_NO":999,"REV_AT_EPOCH":1865,"BSTAR":0.00055801382,"MEAN_MOTION_DOT":0.00022495,"MEAN_MOTION_DDOT":0}]
